H1 CPF 01  gfz 2021 06 10 12  6612 terrasarx 
H2 0702601  6201 31698    2021 06 10 12 59 42 2021 06 15 00 00 42   120 1 1  0 0 0
H9
10 0 59379  65502.000000  0    6413951.440   -607462.260   2431361.990
10 0 59379  65622.000000  0    6021144.483   -750233.716   3253205.341
10 0 59379  65742.000000  0    5520747.790   -872072.061   4017764.713
10 0 59379  65862.000000  0    4921931.921   -969047.398   4711592.423
10 0 59379  65982.000000  0    4235655.571  -1037843.688   5322499.638
10 0 59379  66102.000000  0    3474454.529  -1075844.631   5839768.876
10 0 59379  66222.000000  0    2652203.883  -1081203.474   6254338.193
10 0 59379  66342.000000  0    1783858.414  -1052895.152   6558954.190
10 0 59379  66462.000000  0     885176.284   -990749.843   6748293.993
10 0 59379  66582.000000  0     -27570.435   -895466.461   6819052.578
10 0 59379  66702.000000  0    -937890.698   -768606.552   6769995.446
10 0 59379  66822.000000  0   -1829371.054   -612568.918   6601978.179
10 0 59379  66942.000000  0   -2685969.982   -430544.596   6317932.301
10 0 59379  67062.000000  0   -3492305.869   -226453.332   5922818.450
10 0 59379  67182.000000  0   -4233935.653     -4862.434   5423546.011
10 0 59379  67302.000000  0   -4897618.882    229110.711   4828858.497
10 0 59379  67422.000000  0   -5471561.430    469910.280   4149185.752
10 0 59379  67542.000000  0   -5945633.918    711666.502   3396464.543
10 0 59379  67662.000000  0   -6311559.718    948330.075   2583931.200
10 0 59379  67782.000000  0   -6563069.446   1173813.654   1725888.001
10 0 59379  67902.000000  0   -6696017.025   1382136.488    837447.677
10 0 59379  68022.000000  0   -6708454.332   1567569.303    -65739.988
10 0 59379  68142.000000  0   -6600660.301   1724775.272   -967773.080
10 0 59379  68262.000000  0   -6375124.705   1848942.800  -1852786.230
10 0 59379  68382.000000  0   -6036488.744   1935908.022  -2705237.303
10 0 59379  68502.000000  0   -5591442.250   1982263.719  -3510187.578
10 0 59379  68622.000000  0   -5048580.133   1985450.595  -4253566.890
10 0 59379  68742.000000  0   -4418224.143   1943829.708  -4922418.017
10 0 59379  68862.000000  0   -3712215.047   1856734.866  -5505116.821
10 0 59379  68982.000000  0   -2943681.533   1724504.447  -5991564.966
10 0 59379  69102.000000  0   -2126790.925   1548492.026  -6373354.860
10 0 59379  69222.000000  0   -1276484.539   1331055.964  -6643903.836
10 0 59379  69342.000000  0    -408205.533   1075528.127  -6798555.409
10 0 59379  69462.000000  0     462376.247    786163.008  -6834649.931
10 0 59379  69582.000000  0    1319639.129    468068.487  -6751566.586
10 0 59379  69702.000000  0    2148284.719    127117.419  -6550734.211
10 0 59379  69822.000000  0    2933604.705   -230157.796  -6235608.674
10 0 59379  69942.000000  0    3661738.357   -596686.092  -5811619.960
10 0 59379  70062.000000  0    4319914.810   -964992.888  -5286086.970
10 0 59379  70182.000000  0    4896679.159  -1327347.516  -4668103.692
10 0 59379  70302.000000  0    5382098.442  -1675921.366  -3968393.123
10 0 59379  70422.000000  0    5767941.690  -2002952.458  -3199130.935
10 0 59379  70542.000000  0    6047830.587  -2300913.823  -2373740.643
10 0 59379  70662.000000  0    6217356.206  -2562681.954  -1506662.647
10 0 59379  70782.000000  0    6274158.328  -2781700.736   -613101.584
10 0 59379  70902.000000  0    6217965.466  -2952137.134    291243.724
10 0 59379  71022.000000  0    6050593.383  -3069024.331   1190462.337
10 0 59379  71142.000000  0    5775902.138  -3128388.525   2068720.333
10 0 59379  71262.000000  0    5399709.378  -3127355.539   2910549.054
10 0 59379  71382.000000  0    4929665.471  -3064234.717   3701125.432
10 0 59379  71502.000000  0    4375092.451  -2938576.777   4426538.270
10 0 59379  71622.000000  0    3746793.750  -2751207.060   5074035.854
10 0 59379  71742.000000  0    3056835.270  -2504232.262   5632251.594
10 0 59379  71862.000000  0    2318305.724  -2201019.253   6091400.178
10 0 59379  71982.000000  0    1545062.719  -1846148.772   6443444.153
10 0 59379  72102.000000  0     751468.689  -1445344.741   6682228.812
10 0 59379  72222.000000  0     -47878.308  -1005380.114   6803583.673
10 0 59379  72342.000000  0    -838413.214   -533961.064   6805390.150
10 0 59379  72462.000000  0   -1605868.124    -39591.989   6687615.685
10 0 59379  72582.000000  0   -2336528.650    468577.516   6452314.391
10 0 59379  72702.000000  0   -3017478.492    980921.208   6103593.872
10 0 59379  72822.000000  0   -3636828.890   1487517.409   5647548.478
10 0 59379  72942.000000  0   -4183929.896   1978340.348   5092159.447
10 0 59379  73062.000000  0   -4649559.862   2443458.865   4447161.685
10 0 59379  73182.000000  0   -5026087.919   2873238.393   3723877.036
10 0 59379  73302.000000  0   -5307605.682   3258541.273   2935018.131
10 0 59379  73422.000000  0   -5490026.510   3590921.638   2094465.825
10 0 59379  73542.000000  0   -5571149.760   3862811.236   1217022.658
10 0 59379  73662.000000  0   -5550686.748   4067689.486    318145.418
10 0 59379  73782.000000  0   -5430247.080   4200233.607   -586334.730
10 0 59379  73902.000000  0   -5213287.692   4256445.805  -1480499.695
10 0 59379  74022.000000  0   -4905024.129   4233754.141  -2348634.555
10 0 59379  74142.000000  0   -4512305.201   4131082.443  -3175511.908
10 0 59379  74262.000000  0   -4043456.785   3948889.400  -3946663.211
10 0 59379  74382.000000  0   -3508099.048   3689176.324  -4648631.819
10 0 59379  74502.000000  0   -2916942.508   3355464.496  -5269203.333
10 0 59379  74622.000000  0   -2281569.900   2952743.393  -5797609.831
10 0 59379  74742.000000  0   -1614206.479   2487391.689  -6224708.099
10 0 59379  74862.000000  0    -927483.135   1967071.040  -6543126.632
10 0 59379  74982.000000  0    -234199.296   1400597.511  -6747380.798
10 0 59379  75102.000000  0     452911.276    797792.041  -6833957.288
10 0 59379  75222.000000  0    1121408.189    169313.103  -6801368.852
10 0 59379  75342.000000  0    1759365.541   -473528.227  -6650177.454
10 0 59379  75462.000000  0    2355579.226  -1118966.896  -6382984.222
10 0 59379  75582.000000  0    2899760.009  -1754993.609  -6004389.962
10 0 59379  75702.000000  0    3382709.452  -2369572.560  -5520924.302
10 0 59379  75822.000000  0    3796477.770  -2950866.675  -4940945.613
10 0 59379  75942.000000  0    4134499.003  -3487466.103  -4274506.227
10 0 59379  76062.000000  0    4391699.199  -3968612.578  -3533187.972
10 0 59379  76182.000000  0    4564578.848  -4384417.772  -2729910.530
10 0 59379  76302.000000  0    4651266.176  -4726070.718  -1878711.724
10 0 59379  76422.000000  0    4651538.814  -4986029.175   -994504.004
10 0 59379  76542.000000  0    4566811.688  -5158189.458    -92810.283
10 0 59379  76662.000000  0    4400091.477  -5238028.883    810514.346
10 0 59379  76782.000000  0    4155899.262  -5222718.216   1699569.461
10 0 59379  76902.000000  0    3840161.061  -5111199.101   2558698.834
10 0 59379  77022.000000  0    3460070.504  -4904226.334   3372773.644
10 0 59379  77142.000000  0    3023927.393  -4604373.375   4127465.994
10 0 59379  77262.000000  0    2540955.984  -4216000.299   4809505.240
10 0 59379  77382.000000  0    2021108.178  -3745186.123   5406912.748
10 0 59379  77502.000000  0    1474856.106  -3199627.716   5909211.017
10 0 59379  77622.000000  0     912978.427  -2588506.699   6307603.504
10 0 59379  77742.000000  0     346345.982  -1922329.471   6595122.264
10 0 59379  77862.000000  0    -214288.940  -1212743.021   6766742.990
10 0 59379  77982.000000  0    -758495.488   -472329.393   6819468.302
10 0 59379  78102.000000  0   -1276357.250    285618.492   6752376.757
10 0 59379  78222.000000  0   -1758652.382   1047335.097   6566637.778
10 0 59379  78342.000000  0   -2197017.501   1798831.401   6265492.450
10 0 59379  78462.000000  0   -2584093.440   2526151.000   5854200.569
10 0 59379  78582.000000  0   -2913650.075   3215629.970   5339954.564
10 0 59379  78702.000000  0   -3180689.425   3854155.845   4731760.412
10 0 59379  78822.000000  0   -3381524.505   4429421.543   4040285.761
10 0 59379  78942.000000  0   -3513831.658   4930168.907   3277676.868
10 0 59379  79062.000000  0   -3576675.058   5346416.399   2457346.327
10 0 59379  79182.000000  0   -3570502.570   5669664.469   1593734.938
10 0 59379  79302.000000  0   -3497112.810   5893073.348    702053.566
10 0 59379  79422.000000  0   -3359595.083   6011611.725   -201990.582
10 0 59379  79542.000000  0   -3162242.162   6022169.494  -1102480.314
10 0 59379  79662.000000  0   -2910438.593   5923630.689  -1983579.344
10 0 59379  79782.000000  0   -2610525.113   5716903.882  -2829820.522
10 0 59379  79902.000000  0   -2269645.649   5404912.000  -3626380.935
10 0 59379  80022.000000  0   -1895582.401   4992543.914  -4359343.514
10 0 59379  80142.000000  0   -1496581.203   4486566.262  -5015937.591
10 0 59379  80262.000000  0   -1081173.319   3895502.383  -5584754.508
10 0 59379  80382.000000  0    -657996.094   3229480.267  -6055938.171
10 0 59379  80502.000000  0    -235616.033   2500051.051  -6421346.113
10 0 59379  80622.000000  0     177640.982   1719983.971  -6674677.837
10 0 59379  80742.000000  0     573848.860    903042.873  -6811573.297
10 0 59379  80862.000000  0     945629.314     63745.959  -6829680.268
10 0 59379  80982.000000  0    1286285.720   -782887.726  -6728690.009
10 0 59379  81102.000000  0    1589920.216  -1621600.839  -6510340.331
10 0 59379  81222.000000  0    1851533.517  -2437164.947  -6178388.902
10 0 59379  81342.000000  0    2067106.861  -3214650.692  -5738556.598
10 0 59379  81462.000000  0    2233664.216  -3939699.458  -5198440.406
10 0 59379  81582.000000  0    2349313.631  -4598790.209  -4567391.750
10 0 59379  81702.000000  0    2413266.449  -5179493.691  -3856364.888
10 0 59379  81822.000000  0    2425834.238  -5670713.346  -3077737.247
10 0 59379  81942.000000  0    2388403.234  -6062906.941  -2245101.064
99
